OPTICUBE 04             
1 41851U 16067D   26068.51005515  .00003771  00000+0  24102-3 0  9992
2 41851  98.0811 275.5525 0017089  94.6311 265.6869 15.09188144510131
STARLINK-3999           
1 52704U 22053BA  26068.55691398 -.00000750  00000+0 -29010-4 0  9997
2 52704  53.2175 134.7197 0001438  89.2563 270.8594 15.08835858211295
